KUIPER-00008            
1 63724U 25088A   25365.51151008  .00010506  00000+0  88415-3 0  9997
2 63724  51.8913  37.7106 0007768 232.5119 127.5146 14.98704735 37831
KUIPER-00009            
1 63725U 25088B   25365.51034783  .00001949  00000+0  28515-3 0  9994
2 63725  51.9051  48.1142 0010701 228.5826 131.4217 14.79869293 37689
KUIPER-00010            
1 63726U 25088C   25363.59679890 -.00040493  00000+0 -52595-2 0  9998
2 63726  51.9019  32.8813 0011134 266.6809  93.2880 14.80318323 37354
KUIPER-00011            
1 63727U 25088D   25365.46039364 -.00001732  00000+0 -19747-3 0  9999
2 63727  51.9031  32.3636 0012331 251.8561 108.1058 14.79954885 37651
KUIPER-00012            
1 63728U 25088E   25365.46933489 -.00003127  00000+0 -41329-3 0  9992
2 63728  51.9025  16.1220 0007884 262.0265  97.9802 14.76571131 37834
KUIPER-00013            
1 63729U 25088F   25365.50939298  .00002108  00000+0  30617-3 0  9996
2 63729  51.9029  49.5819 0006552 155.0870 205.0410 14.79843046 37474
KUIPER-00014            
1 63730U 25088G   25365.50759593  .00004926  00000+0  67444-3 0  9994
2 63730  51.9023  50.5605 0004451 242.4251 117.6259 14.79949333 37278
KUIPER-00015            
1 63731U 25088H   25365.45321966 -.00005268  00000+0 -62803-3 0  9994
2 63731  51.9005  61.5040 0010013 207.1797 152.8643 14.82079059 37572
